{
  "tenantId": "mh.roha",
  "moduleName": "lcms",
  "court": [
    {
      "code": "001",
      "address": {
        "pincode": "20052",
        "city": "bombay",
        "addressLine1": "Address 1",
        "addressLine2": "address 2"
      },
      "name": "Court_131",
      "tenantId": "default",
      "active": true
    },
    {
      "name": "Mumbai High Court",
      "code": "MHC",
      "address": {
        "addressLine1": "KartarRoad ",
        "addressLine2": "Mumbai Central",
        "city": "Mumbai",
        "pincode": "847225"
      },
      "active": true,
      "tenantId": "mh.roha"
    },
    {
      "name": "Patna High Court",
      "code": "PC",
      "address": {
        "addressLine1": "Gandhi Medan",
        "addressLine2": "Belly Road",
        "city": "Patna",
        "pincode": "988888"
      },
      "active": true,
      "tenantId": "mh.roha"
    },
    {
      "name": "ATest",
      "code": "AT01",
      "address": {
        "addressLine1": "Test",
        "addressLine2": "Test",
        "city": "Test",
        "pincode": "Test"
      },
      "active": true,
      "tenantId": "mh.roha"
    },
    {
      "name": "XTest",
      "code": "XT01",
      "address": {
        "addressLine1": "Test",
        "addressLine2": "TEst",
        "city": "Test",
        "pincode": "Test"
      },
      "active": true,
      "tenantId": "mh.roha"
    },
    {
      "name": "FTEst1",
      "code": "Fi98",
      "address": {
        "addressLine1": "TEst",
        "addressLine2": "Test",
        "city": "Test",
        "pincode": "Test"
      },
      "active": true,
      "tenantId": "mh.roha"
    },
    {
      "name": "PATest",
      "code": "PAT01",
      "address": {
        "addressLine1": "add1",
        "addressLine2": "add2",
        "city": "city1",
        "pincode": "Test"
      },
      "active": true,
      "tenantId": "mh.roha"
    },
    {
      "name": "Madhubani",
      "code": "MDI",
      "address": {
        "addressLine1": "city - Madhubani",
        "addressLine2": "36/S Mahubani",
        "city": "Madhubani",
        "pincode": "875656"
      },
      "active": true,
      "tenantId": "mh.roha"
    },
    {
      "name": "Basopatti",
      "code": "BST",
      "address": {
        "addressLine1": "village -Basopatti",
        "addressLine2": "65/C Ram sankar Building",
        "city": "madhubani",
        "pincode": "9875"
      },
      "active": false,
      "tenantId": "mh.roha"
    },
    {
      "name": "court name 2",
      "code": "CC2",
      "address": {
        "addressLine1": "36/a vangal rao nagar",
        "addressLine2": "village-sukhbasi",
        "city": "Madhubani",
        "pincode": "839933"
      },
      "active": true,
      "tenantId": "mh.roha"
    },
    {
      "name": "SR Court",
      "code": "SRC",
      "address": {
        "addressLine1": "village-sukhbasi",
        "addressLine2": "36/a vangal rao nagar ",
        "city": "Madhubani",
        "pincode": "838485"
      },
      "active": true,
      "tenantId": "mh.roha"
    },
    {
      "name": "Bangalore Court",
      "code": "BBCOURT",
      "address": {
        "addressLine1": "Bangalore",
        "addressLine2": "Bangalore",
        "city": "Bangalore",
        "pincode": "560023"
      },
      "active": true,
      "tenantId": "mh.roha"
    },
    {
      "name": "Ahmedabad High Court",
      "code": "AHC",
      "address": {
        "addressLine1": "Ahmedabad",
        "addressLine2": "Ahmedabad",
        "city": "Ahmedabad",
        "pincode": "560039"
      },
      "active": true,
      "tenantId": "mh.roha"
    }
  ]
}